TDRS 3                  
1 19548U 88091B   26176.80053847 -.00000297  00000+0  00000+0 0  9997
2 19548  12.5949 340.9470 0037790 356.8738 175.4758  1.00271031125473
FLTSATCOM 8 (USA 46)    
1 20253U 89077A   26176.90626435 -.00000366  00000+0  00000+0 0  9994
2 20253  12.4190 351.1107 0003962  59.5500 315.4109  1.00272987260651
SKYNET 4C               
1 20776U 90079A   26162.20198486  .00000132  00000+0  00000+0 0  9996
2 20776  13.3424 349.8525 0002400  96.2313 279.5534  1.00274127130831
TDRS 5                  
1 21639U 91054B   26177.20464564  .00000085  00000+0  00000+0 0  9995
2 21639  14.0698 353.7133 0005829 270.8860 275.8540  1.00279057127801
TDRS 6                  
1 22314U 93003B   26177.24999039 -.00000296  00000+0  00000+0 0  9991
2 22314  14.1829 356.9909 0008533 179.7324 141.7485  1.00268051122493
UFO 2 (USA 95)          
1 22787U 93056A   26177.17223947  .00000126  00000+0  00000+0 0  9994
2 22787  11.8976   3.5047 0004567   8.7210 352.7041  1.00272944118640
USA 99 (MILSTAR-1 1)    
1 22988U 94009A   26177.29307828 -.00000208  00000+0  00000+0 0  9992
2 22988  17.6402  27.6118 0000595 198.7092 107.8274  0.98723763 33034
UFO 4 (USA 108)         
1 23467U 95003A   26176.80530961 -.00000020  00000+0  00000+0 0  9994
2 23467   9.6837  13.1553 0002998  78.5129 284.3772  1.00273867115043
TDRS 7                  
1 23613U 95035B   26176.97028543 -.00000239  00000+0  00000+0 0  9990
2 23613  13.3735 348.1290 0011826  81.9216 282.3407  1.00278963113345
USA 115 (MILSTAR-1 2)   
1 23712U 95060A   26177.24523730 -.00000208  00000+0  00000+0 0  9993
2 23712  14.0759   3.6821 0002124 133.4234 134.3268  1.00364228 32976
INMARSAT 3-F1           
1 23839U 96020A   26177.23023025 -.00000058  00000+0  00000+0 0  9994
2 23839  10.6191  46.5509 0003833  65.7062 140.2492  0.99978019110340
INMARSAT 3-F2           
1 24307U 96053A   26176.55291066 -.00000311  00000+0  00000+0 0  9999
2 24307   9.8751  53.8509 0006465  37.8190 162.3111  1.00000666109001
INMARSAT 3-F3           
1 24674U 96070A   26176.81681796  .00000129  00000+0  00000+0 0  9993
2 24674  10.3362  49.5703 0003096  41.2561 150.7588  0.99986568107995
USA 134                 
1 25019U 97065A   26177.17664247 -.00000063  00000+0  00000+0 0  9992
2 25019  12.7947  21.6562 0003085 346.9097 216.9327  1.00269973 33042
INMARSAT 3-F5           
1 25153U 98006B   26177.13794714 -.00000289  00000+0  00000+0 0  9996
2 25153   9.7129  53.1719 0004346  36.2302 180.5563  1.00273212103982
ABS-6                   
1 25924U 99053A   26177.19814561 -.00000109  00000+0  00000+0 0  9995
2 25924   0.0274 291.2085 0003653 169.7678  43.6975  1.00269799 97930
UFO 10 (USA 146)        
1 25967U 99063A   26176.93030833 -.00000187  00000+0  00000+0 0  9992
2 25967   9.8408  27.1653 0001599  63.7985 135.0117  1.00269320 97430
ASIASTAR                
1 26107U 00016A   26177.11611581 -.00000332  00000+0  00000+0 0  9997
2 26107   9.1501  58.0591 0004616  32.6885 330.3177  1.00273020 96016
USA 149 (DSP 20)        
1 26356U 00024A   26177.25032225  .00000095  00000+0  00000+0 0  9994
2 26356  13.1772  11.7887 0001654 324.9844 222.4894  1.00279702 33002
TDRS 8                  
1 26388U 00034A   26177.11204247 -.00000196  00000+0  00000+0 0  9993
2 26388  12.6971  31.2453 0004807  23.7879 344.2705  1.00275987 95275
NSS-11                  
1 26554U 00059A   26177.20152563  .00000034  00000+0  00000+0 0  9998
2 26554   2.1498  81.2933 0003119   7.0694  74.5073  1.00272535 41381
USA 153                 
1 26575U 00065A   26175.63348895 -.00000327  00000+0  00000+0 0  9994
2 26575  11.6373  35.3608 0003089  48.9917 190.9042  1.00268508 33002
AMC-6                   
1 26580U 00067A   26177.25151280  .00000099  00000+0  00000+0 0  9997
2 26580   0.1754  83.4197 0003933  21.0687 125.3814  1.00272479 93989
USA 157 (MILSTAR-2 2)   
1 26715U 01009A   26177.21300737  .00000110  00000+0  00000+0 0  9997
2 26715  11.5524  19.7094 0039389 178.2204   3.1193  1.00267052 33036
INTELSAT 902 (IS-902)   
1 26900U 01039A   26177.13794714 -.00000278  00000+0  00000+0 0  9995
2 26900   6.1388  71.6744 0004209  23.6382 178.5113  1.00271695 90784
USA 164 (MILSTAR-2 3)   
1 27168U 02001A   26177.24164124  .00000098  00000+0  00000+0 0  9999
2 27168  11.1903  21.8531 0099699   8.6688 349.7657  1.00270651 33042
INTELSAT 904 (IS-904)   
1 27380U 02007A   26177.11700990 -.00000221  00000+0  00000+0 0  9993
2 27380   6.9421  69.0793 0006534  10.4968 205.3017  1.00273226 51854
DIRECTV 5 (TEMPO 1)     
1 27426U 02023A   26176.78437416 -.00000051  00000+0  00000+0 0  9995
2 27426   4.8997  75.2077 0003505  26.5739 344.4102  1.00272965 88212
INTELSAT 905 (IS-905)   
1 27438U 02027A   26177.25822949  .00000098  00000+0  00000+0 0  9994
2 27438   6.7760  69.6927 0004135  25.9436 134.5016  1.00271719 51456
GALAXY 3C (G-3C)        
1 27445U 02030A   26177.19426329 -.00000145  00000+0  00000+0 0  9995
2 27445   3.7557  77.8632 0001948  25.0083 146.5460  1.00272425 46586
INTELSAT 906 (IS-906)   
1 27513U 02041A   26177.17934618  .00000018  00000+0  00000+0 0  9994
2 27513   5.8247  72.8110 0004227   6.8820 323.3205  1.00272027 87110
